CCSDS_OMM_VERS = 2.0
CREATION_DATE  = 
ORIGINATOR     = 

OBJECT_NAME    = UNKNOWN
OBJECT_ID      = 
CENTER_NAME    = EARTH
REF_FRAME      = TEME
TIME_SYSTEM    = UTC
MEAN_ELEMENT_THEORY = SGP/SGP4

EPOCH          = 2026-02-01T03:42:35.315424
MEAN_MOTION    = 13.11209694
ECCENTRICITY   = .0895515
INCLINATION    = 65.8312
RA_OF_ASC_NODE = 342.5504
ARG_OF_PERICENTER = 260.1964
MEAN_ANOMALY   = 89.6941

EPHEMERIS_TYPE = 0
CLASSIFICATION_TYPE = U
NORAD_CAT_ID   = 81792
ELEMENT_SET_NO = 999
REV_AT_EPOCH   = 8664
BSTAR          = .60629E-3
MEAN_MOTION_DOT = .1669E-4
MEAN_MOTION_DDOT = 0

CCSDS_OMM_VERS = 2.0
CREATION_DATE  = 
ORIGINATOR     = 

OBJECT_NAME    = UNKNOWN
OBJECT_ID      = 
CENTER_NAME    = EARTH
REF_FRAME      = TEME
TIME_SYSTEM    = UTC
MEAN_ELEMENT_THEORY = SGP/SGP4

EPOCH          = 2026-02-02T17:04:36.617088
MEAN_MOTION    = 12.37769355
ECCENTRICITY   = .0236497
INCLINATION    = 103.8141
RA_OF_ASC_NODE = 317.0577
ARG_OF_PERICENTER = 147.9476
MEAN_ANOMALY   = 213.6208

EPHEMERIS_TYPE = 0
CLASSIFICATION_TYPE = U
NORAD_CAT_ID   = 81812
ELEMENT_SET_NO = 999
REV_AT_EPOCH   = 54699
BSTAR          = .29925E-1
MEAN_MOTION_DOT = .4223E-4
MEAN_MOTION_DDOT = 0

CCSDS_OMM_VERS = 2.0
CREATION_DATE  = 
ORIGINATOR     = 

OBJECT_NAME    = UNKNOWN
OBJECT_ID      = 
CENTER_NAME    = EARTH
REF_FRAME      = TEME
TIME_SYSTEM    = UTC
MEAN_ELEMENT_THEORY = SGP/SGP4

EPOCH          = 2026-02-01T18:27:18.360864
MEAN_MOTION    = 13.89610688
ECCENTRICITY   = .0175592
INCLINATION    = 66.2379
RA_OF_ASC_NODE = 168.8862
ARG_OF_PERICENTER = 217.7620
MEAN_ANOMALY   = 141.1027

EPHEMERIS_TYPE = 0
CLASSIFICATION_TYPE = U
NORAD_CAT_ID   = 81816
ELEMENT_SET_NO = 999
REV_AT_EPOCH   = 61643
BSTAR          = .12407E-2
MEAN_MOTION_DOT = .1641E-4
MEAN_MOTION_DDOT = 0

CCSDS_OMM_VERS = 2.0
CREATION_DATE  = 
ORIGINATOR     = 

OBJECT_NAME    = UNKNOWN
OBJECT_ID      = 
CENTER_NAME    = EARTH
REF_FRAME      = TEME
TIME_SYSTEM    = UTC
MEAN_ELEMENT_THEORY = SGP/SGP4

EPOCH          = 2026-01-31T05:03:58.958784
MEAN_MOTION    = 12.47772218
ECCENTRICITY   = .0030221
INCLINATION    = 102.1764
RA_OF_ASC_NODE = 134.0718
ARG_OF_PERICENTER = 23.2133
MEAN_ANOMALY   = 337.0292

EPHEMERIS_TYPE = 0
CLASSIFICATION_TYPE = U
NORAD_CAT_ID   = 81819
ELEMENT_SET_NO = 999
REV_AT_EPOCH   = 55418
BSTAR          = .71468E-2
MEAN_MOTION_DOT = .1011E-4
MEAN_MOTION_DDOT = 0

CCSDS_OMM_VERS = 2.0
CREATION_DATE  = 
ORIGINATOR     = 

OBJECT_NAME    = UNKNOWN
OBJECT_ID      = 
CENTER_NAME    = EARTH
REF_FRAME      = TEME
TIME_SYSTEM    = UTC
MEAN_ELEMENT_THEORY = SGP/SGP4

EPOCH          = 2026-02-02T12:29:43.898208
MEAN_MOTION    = 14.36074366
ECCENTRICITY   = .0044741
INCLINATION    = 65.8420
RA_OF_ASC_NODE = 195.8546
ARG_OF_PERICENTER = 306.3480
MEAN_ANOMALY   = 53.3488

EPHEMERIS_TYPE = 0
CLASSIFICATION_TYPE = U
NORAD_CAT_ID   = 81824
ELEMENT_SET_NO = 999
REV_AT_EPOCH   = 63202
BSTAR          = .1793E-2
MEAN_MOTION_DOT = .5197E-4
MEAN_MOTION_DDOT = 0

CCSDS_OMM_VERS = 2.0
CREATION_DATE  = 
ORIGINATOR     = 

OBJECT_NAME    = UNKNOWN
OBJECT_ID      = 
CENTER_NAME    = EARTH
REF_FRAME      = TEME
TIME_SYSTEM    = UTC
MEAN_ELEMENT_THEORY = SGP/SGP4

EPOCH          = 2026-01-28T16:13:43.019040
MEAN_MOTION    = 12.93746880
ECCENTRICITY   = .0025148
INCLINATION    = 90.2433
RA_OF_ASC_NODE = 3.9307
ARG_OF_PERICENTER = 261.8702
MEAN_ANOMALY   = 97.9564

EPHEMERIS_TYPE = 0
CLASSIFICATION_TYPE = U
NORAD_CAT_ID   = 81833
ELEMENT_SET_NO = 999
REV_AT_EPOCH   = 45858
BSTAR          = .1318E-2
MEAN_MOTION_DOT = .37E-5
MEAN_MOTION_DDOT = 0

CCSDS_OMM_VERS = 2.0
CREATION_DATE  = 
ORIGINATOR     = 

OBJECT_NAME    = UNKNOWN
OBJECT_ID      = 
CENTER_NAME    = EARTH
REF_FRAME      = TEME
TIME_SYSTEM    = UTC
MEAN_ELEMENT_THEORY = SGP/SGP4

EPOCH          = 2026-01-26T16:46:09.078816
MEAN_MOTION    = 14.57662167
ECCENTRICITY   = .0041952
INCLINATION    = 67.7595
RA_OF_ASC_NODE = 148.7226
ARG_OF_PERICENTER = 323.4616
MEAN_ANOMALY   = 103.9601

EPHEMERIS_TYPE = 0
CLASSIFICATION_TYPE = U
NORAD_CAT_ID   = 81838
ELEMENT_SET_NO = 999
REV_AT_EPOCH   = 63988
BSTAR          = .23584E-2
MEAN_MOTION_DOT = .10833E-3
MEAN_MOTION_DDOT = 0

CCSDS_OMM_VERS = 2.0
CREATION_DATE  = 
ORIGINATOR     = 

OBJECT_NAME    = UNKNOWN
OBJECT_ID      = 
CENTER_NAME    = EARTH
REF_FRAME      = TEME
TIME_SYSTEM    = UTC
MEAN_ELEMENT_THEORY = SGP/SGP4

EPOCH          = 2026-02-02T07:00:31.411008
MEAN_MOTION    = 14.33399333
ECCENTRICITY   = .0061771
INCLINATION    = 82.9065
RA_OF_ASC_NODE = 240.2740
ARG_OF_PERICENTER = 355.1846
MEAN_ANOMALY   = 4.8740

EPHEMERIS_TYPE = 0
CLASSIFICATION_TYPE = U
NORAD_CAT_ID   = 81844
ELEMENT_SET_NO = 999
REV_AT_EPOCH   = 63027
BSTAR          = .15315E-2
MEAN_MOTION_DOT = .4331E-4
MEAN_MOTION_DDOT = 0

CCSDS_OMM_VERS = 2.0
CREATION_DATE  = 
ORIGINATOR     = 

OBJECT_NAME    = UNKNOWN
OBJECT_ID      = 
CENTER_NAME    = EARTH
REF_FRAME      = TEME
TIME_SYSTEM    = UTC
MEAN_ELEMENT_THEORY = SGP/SGP4

EPOCH          = 2026-02-02T11:26:38.258016
MEAN_MOTION    = 14.85502729
ECCENTRICITY   = .0088146
INCLINATION    = 97.6753
RA_OF_ASC_NODE = 223.6351
ARG_OF_PERICENTER = 134.2111
MEAN_ANOMALY   = 257.1362

EPHEMERIS_TYPE = 0
CLASSIFICATION_TYPE = U
NORAD_CAT_ID   = 81845
ELEMENT_SET_NO = 999
REV_AT_EPOCH   = 65720
BSTAR          = .39615E-3
MEAN_MOTION_DOT = .3613E-4
MEAN_MOTION_DDOT = 0

CCSDS_OMM_VERS = 2.0
CREATION_DATE  = 
ORIGINATOR     = 

OBJECT_NAME    = UNKNOWN
OBJECT_ID      = 
CENTER_NAME    = EARTH
REF_FRAME      = TEME
TIME_SYSTEM    = UTC
MEAN_ELEMENT_THEORY = SGP/SGP4

EPOCH          = 2026-02-02T03:08:14.204544
MEAN_MOTION    = 13.32666652
ECCENTRICITY   = .0766542
INCLINATION    = 65.6733
RA_OF_ASC_NODE = 306.7363
ARG_OF_PERICENTER = 350.9348
MEAN_ANOMALY   = 7.8479

EPHEMERIS_TYPE = 0
CLASSIFICATION_TYPE = U
NORAD_CAT_ID   = 81864
ELEMENT_SET_NO = 999
REV_AT_EPOCH   = 55768
BSTAR          = .94023E-3
MEAN_MOTION_DOT = .244E-4
MEAN_MOTION_DDOT = 0

CCSDS_OMM_VERS = 2.0
CREATION_DATE  = 
ORIGINATOR     = 

OBJECT_NAME    = UNKNOWN
OBJECT_ID      = 
CENTER_NAME    = EARTH
REF_FRAME      = TEME
TIME_SYSTEM    = UTC
MEAN_ELEMENT_THEORY = SGP/SGP4

EPOCH          = 2026-02-02T08:00:30.538656
MEAN_MOTION    = 13.88191671
ECCENTRICITY   = .0060214
INCLINATION    = 82.8073
RA_OF_ASC_NODE = 348.8467
ARG_OF_PERICENTER = 217.4588
MEAN_ANOMALY   = 295.1106

EPHEMERIS_TYPE = 0
CLASSIFICATION_TYPE = U
NORAD_CAT_ID   = 81865
ELEMENT_SET_NO = 999
REV_AT_EPOCH   = 61570
BSTAR          = .10875E-2
MEAN_MOTION_DOT = .1332E-4
MEAN_MOTION_DDOT = 0

CCSDS_OMM_VERS = 2.0
CREATION_DATE  = 
ORIGINATOR     = 

OBJECT_NAME    = UNKNOWN
OBJECT_ID      = 
CENTER_NAME    = EARTH
REF_FRAME      = TEME
TIME_SYSTEM    = UTC
MEAN_ELEMENT_THEORY = SGP/SGP4

EPOCH          = 2026-02-01T17:40:57.153504
MEAN_MOTION    = 13.76828490
ECCENTRICITY   = .0020993
INCLINATION    = 100.0535
RA_OF_ASC_NODE = 23.8644
ARG_OF_PERICENTER = 136.4053
MEAN_ANOMALY   = 223.8759

EPHEMERIS_TYPE = 0
CLASSIFICATION_TYPE = U
NORAD_CAT_ID   = 81893
ELEMENT_SET_NO = 999
REV_AT_EPOCH   = 61109
BSTAR          = .11582E-2
MEAN_MOTION_DOT = .1093E-4
MEAN_MOTION_DDOT = 0

