UNKNOWN                 
1 81792U          26032.15457541  .00001669  00000+0  60629-3 0  9999
2 81792  65.8312 342.5504 0895515 260.1964  89.6941 13.11209694 86645
UNKNOWN                 
1 81812U          26033.71153492  .00004223  00000+0  29925-1 0  9994
2 81812 103.8141 317.0577 0236497 147.9476 213.6208 12.37769355546992
UNKNOWN                 
1 81816U          26032.76896251  .00001641  00000+0  12407-2 0  9998
2 81816  66.2379 168.8862 0175592 217.7620 141.1027 13.89610688616438
UNKNOWN                 
1 81819U          26031.21109906  .00001011  00000+0  71468-2 0  9997
2 81819 102.1764 134.0718 0030221  23.2133 337.0292 12.47772218554186
UNKNOWN                 
1 81824U          26033.52064697  .00005197  00000+0  17930-2 0  9999
2 81824  65.8420 195.8546 0044741 306.3480  53.3488 14.36074366632026
UNKNOWN                 
1 81833U          26028.67619235  .00000370  00000+0  13180-2 0  9994
2 81833  90.2433   3.9307 0025148 261.8702  97.9564 12.93746880458582
UNKNOWN                 
1 81838U          26026.69871619  .00010833  00000+0  23584-2 0  9999
2 81838  67.7595 148.7226 0041952 323.4616 103.9601 14.57662167639884
UNKNOWN                 
1 81844U          26033.29203022  .00004331  00000+0  15315-2 0  9996
2 81844  82.9065 240.2740 0061771 355.1846   4.8740 14.33399333630272
UNKNOWN                 
1 81845U          26033.47683169  .00003613  00000+0  39615-3 0  9993
2 81845  97.6753 223.6351 0088146 134.2111 257.1362 14.85502729657206
UNKNOWN                 
1 81864U          26033.13071996  .00002440  00000+0  94023-3 0  9997
2 81864  65.6733 306.7363 0766542 350.9348   7.8479 13.32666652557685
UNKNOWN                 
1 81865U          26033.33368679  .00001332  00000+0  10875-2 0  9998
2 81865  82.8073 348.8467 0060214 217.4588 295.1106 13.88191671615704
UNKNOWN                 
1 81893U          26032.73677261  .00001093  00000+0  11582-2 0  9992
2 81893 100.0535  23.8644 0020993 136.4053 223.8759 13.76828490611098
